STARLINK-31532          
1 59349U 24060B   26068.82593453 -.00002790  00000+0 -91837-4 0  9994
2 59349  43.0036 259.0920 0001628 274.1104  85.9562 15.27594636110130
FLOCK 4G-29             
1 62642U 25009AK  26068.81464037  .00011147  00000+0  41831-3 0  9994
2 62642  97.4058 151.3683 0001366 288.0502  72.0588 15.27382318 63721
