[{"OBJECT_NAME":"STARLINK-31532","OBJECT_ID":"2024-060B","EPOCH":"2026-03-09T19:49:20.744256","MEAN_MOTION":15.27594636,"ECCENTRICITY":0.00016281,"INCLINATION":43.0036,"RA_OF_ASC_NODE":259.092,"ARG_OF_PERICENTER":274.1104,"MEAN_ANOMALY":85.9562,"EPHEMERIS_TYPE":0,"CLASSIFICATION_TYPE":"U","NORAD_CAT_ID":59349,"ELEMENT_SET_NO":999,"REV_AT_EPOCH":11013,"BSTAR":-9.1837327e-5,"MEAN_MOTION_DOT":-2.79e-5,"MEAN_MOTION_DDOT":0},{"OBJECT_NAME":"FLOCK 4G-29","OBJECT_ID":"2025-009AK","EPOCH":"2026-03-09T19:33:04.927968","MEAN_MOTION":15.27382318,"ECCENTRICITY":0.00013664,"INCLINATION":97.4058,"RA_OF_ASC_NODE":151.3683,"ARG_OF_PERICENTER":288.0502,"MEAN_ANOMALY":72.0588,"EPHEMERIS_TYPE":0,"CLASSIFICATION_TYPE":"U","NORAD_CAT_ID":62642,"ELEMENT_SET_NO":999,"REV_AT_EPOCH":6372,"BSTAR":0.0004183135,"MEAN_MOTION_DOT":0.00011147,"MEAN_MOTION_DDOT":0}]
